OBJECT_NAME,OBJECT_ID,EPOCH,MEAN_MOTION,ECCENTRICITY,INCLINATION,RA_OF_ASC_NODE,ARG_OF_PERICENTER,MEAN_ANOMALY,EPHEMERIS_TYPE,CLASSIFICATION_TYPE,NORAD_CAT_ID,ELEMENT_SET_NO,REV_AT_EPOCH,BSTAR,MEAN_MOTION_DOT,MEAN_MOTION_DDOT
ICEYE-X40,2024-149CK,2026-07-22T15:18:33.144768,14.98115666,.00034846,97.6807,279.5648,342.4887,17.6215,0,U,60549,999,10538,.32144964E-3,.3749E-4,0
SATELIOT_1,2024-149CL,2026-07-22T19:50:28.779072,14.98189206,.00049196,97.6739,279.1312,329.1809,30.9124,0,U,60550,999,10540,.19552097E-3,.2262E-4,0
BRO-14,2024-149CM,2026-07-22T15:21:37.524960,14.96251572,.00061522,97.6861,278.7801,353.5286,6.5855,0,U,60551,999,10529,.77307088E-4,.816E-5,0
SATELIOT_3,2024-149CN,2026-07-22T04:50:14.375328,14.98176032,.00043517,97.6803,279.3417,335.2971,24.8043,0,U,60552,999,10532,.11535545E-3,.131E-4,0
BRO-15,2024-149CP,2026-07-22T21:22:02.234496,14.96232928,.0006974,97.6790,278.5942,339.6089,20.4853,0,U,60553,999,10534,.10693174E-3,.115E-4,0
UM5-RIBAT,2024-149CQ,2026-07-22T16:00:03.958272,15.01241478,.00006186,97.6590,280.9841,239.9630,120.1533,0,U,60554,999,10551,.14806122E-3,.1842E-4,0
UM5-EOSAT,2024-149CR,2026-07-22T03:43:17.478624,15.01759283,.00087912,97.6777,281.5029,17.0906,343.0613,0,U,60555,999,10546,.19432211E-3,.2472E-4,0
LASARSAT,2024-247Q,2026-07-22T16:11:55.194432,15.48423365,.00086031,44.9745,62.4735,212.5816,147.4545,0,U,62391,999,8881,.69745167E-3,.37711E-3,0
CROCUBE,2024-247T,2026-07-22T21:12:10.560384,15.50662269,.00087278,44.9713,57.9990,220.4300,139.5943,0,U,62394,999,8888,.8189054E-3,.48082E-3,0
TEVEL2-4,2025-052D,2026-07-22T04:24:32.969952,15.35744990,.00028764,97.3852,99.6543,37.6826,322.4619,0,U,63213,999,7548,.6152178E-3,.21346E-3,0
TEVEL2-5,2025-052E,2026-07-22T15:56:52.594368,15.35573440,.00028383,97.3850,100.0736,39.0942,321.0506,0,U,63214,999,7555,.60328887E-3,.20814E-3,0
TEVEL2-6,2025-052F,2026-07-22T16:15:48.513312,15.35538157,.0002905,97.3857,100.0719,41.4403,318.7060,0,U,63215,999,7555,.59913706E-3,.20647E-3,0
TEVEL2-1,2025-052H,2026-07-22T04:45:06.514848,15.34943207,.00036051,97.3828,99.1724,45.0225,315.1310,0,U,63217,999,7546,.59832333E-3,.20232E-3,0
TEVEL2-3,2025-052J,2026-07-22T04:35:25.291680,15.35007108,.00035371,97.3841,99.1918,48.5551,311.5996,0,U,63218,999,7546,.60877449E-3,.20629E-3,0
TEVEL2-2,2025-052K,2026-07-22T06:19:05.593152,15.34957239,.00036751,97.3827,99.2408,45.1461,315.0081,0,U,63219,999,7547,.60329009E-3,.2041E-3,0
TEVEL2-9,2025-052AD,2026-07-21T05:49:15.661632,15.32853308,.00070834,97.3890,97.5180,39.6084,320.5675,0,U,63237,999,7524,.41132929E-3,.12991E-3,0
TEVEL2-7,2025-052AE,2026-07-22T15:52:26.480640,15.32583477,.0007024,97.3893,98.8358,35.8352,324.3360,0,U,63238,999,7545,.57796525E-3,.18142E-3,0
TEVEL2-8,2025-052AF,2026-07-21T16:34:29.350272,15.32536130,.00072056,97.3893,97.8424,39.3565,320.8199,0,U,63239,999,7530,.50898615E-3,.1594E-3,0
FORESAIL-1 PRIME,2025-276DS,2026-07-22T21:38:35.012832,15.18984233,.00022553,97.4184,276.5226,26.2384,333.8965,0,U,66778,999,3582,.19967838E-3,.4109E-4,0
